{"type": "FeatureCollection", "features": [ {"type": "Feature", "properties": {"norad_id": 39155, "name": "COSMOS 2485 (747)", "group": "glo-ops", "lat": 64.5081406906293, "lon": -174.63393517234044, "alt_km": 19166.043034757247, "timestamp": "2025-12-17T21:39:45.949277+00:00", "meta": {"OBJECT_NAME": "COSMOS 2485 (747)", "OBJECT_ID": "2013-019A", "EPOCH": "2025-12-17T07:21:50.321088", "MEAN_MOTION": 2.13103137, "ECCENTRICITY": 0.00247401, "INCLINATION": 65.3162, "RA_OF_ASC_NODE": 79.7134, "ARG_OF_PERICENTER": 229.9478, "MEAN_ANOMALY": 129.8522, "EPHEMERIS_TYPE": 0, "CLASSIFICATION_TYPE": "U", "NORAD_CAT_ID": 39155, "ELEMENT_SET_NO": 999, "REV_AT_EPOCH": 9840, "BSTAR": 0, "MEAN_MOTION_DOT": -4.8e-07, "MEAN_MOTION_DDOT": 0}, "tle": {"line1": "1 39155U 13019A   25351.30683242 -.00000048  00000+0  00000+0 0  9992", "line2": "2 39155  65.3162  79.7134 0024740 229.9478 129.8522  2.13103137 98408"}}, "geometry": {"type": "Point", "coordinates": [-174.63393517234044, 64.5081406906293]}}, {"type": "Feature", "properties": {"norad_id": 39620, "name": "COSMOS 2492 (754)", "group": "glo-ops", "lat": 45.15233532130821, "lon": 112.67094145278428, "alt_km": 19160.92173588695, "timestamp": "2025-12-17T21:39:45.949287+00:00", "meta": {"OBJECT_NAME": "COSMOS 2492 (754)", "OBJECT_ID": "2014-012A", "EPOCH": "2025-12-16T07:50:46.447872", "MEAN_MOTION": 2.13103282, "ECCENTRICITY": 0.00142536, "INCLINATION": 65.4058, "RA_OF_ASC_NODE": 320.149, "ARG_OF_PERICENTER": 313.159, "MEAN_ANOMALY": 46.7158, "EPHEMERIS_TYPE": 0, "CLASSIFICATION_TYPE": "U", "NORAD_CAT_ID": 39620, "ELEMENT_SET_NO": 999, "REV_AT_EPOCH": 9134, "BSTAR": 0, "MEAN_MOTION_DOT": -6.8e-07, "MEAN_MOTION_DDOT": 0}, "tle": {"line1": "1 39620U 14012A   25350.32692648 -.00000068  00000+0  00000+0 0  9996", "line2": "2 39620  65.4058 320.1490 0014253 313.1590  46.7158  2.13103282 91346"}}, "geometry": {"type": "Point", "coordinates": [112.67094145278428, 45.15233532130821]}}, {"type": "Feature", "properties": {"norad_id": 40001, "name": "COSMOS 2500 (755)", "group": "glo-ops", "lat": -2.939177765613694, "lon": -41.509648393728554, "alt_km": 19145.719805392582, "timestamp": "2025-12-17T21:39:45.949298+00:00", "meta": {"OBJECT_NAME": "COSMOS 2500 (755)", "OBJECT_ID": "2014-032A", "EPOCH": "2025-12-16T23:14:23.843328", "MEAN_MOTION": 2.13106023, "ECCENTRICITY": 0.00080797, "INCLINATION": 65.3407, "RA_OF_ASC_NODE": 319.8884, "ARG_OF_PERICENTER": 219.086, "MEAN_ANOMALY": 140.8487, "EPHEMERIS_TYPE": 0, "CLASSIFICATION_TYPE": "U", "NORAD_CAT_ID": 40001, "ELEMENT_SET_NO": 999, "REV_AT_EPOCH": 8957, "BSTAR": 0, "MEAN_MOTION_DOT": -6.8e-07, "MEAN_MOTION_DDOT": 0}, "tle": {"line1": "1 40001U 14032A   25350.96833152 -.00000068  00000+0  00000+0 0  9990", "line2": "2 40001  65.3407 319.8884 0008079 219.0860 140.8487  2.13106023 89572"}}, "geometry": {"type": "Point", "coordinates": [-41.509648393728554, -2.939177765613694]}}, {"type": "Feature", "properties": {"norad_id": 40315, "name": "COSMOS 2501 (702K)", "group": "glo-ops", "lat": 20.28850218437711, "lon": 6.07216755431936, "alt_km": 19092.7828346514, "timestamp": "2025-12-17T21:39:45.949308+00:00", "meta": {"OBJECT_NAME": "COSMOS 2501 (702K)", "OBJECT_ID": "2014-075A", "EPOCH": "2025-12-14T09:54:07.365600", "MEAN_MOTION": 2.13101427, "ECCENTRICITY": 0.00201134, "INCLINATION": 63.6139, "RA_OF_ASC_NODE": 196.7672, "ARG_OF_PERICENTER": 204.2903, "MEAN_ANOMALY": 155.6894, "EPHEMERIS_TYPE": 0, "CLASSIFICATION_TYPE": "U", "NORAD_CAT_ID": 40315, "ELEMENT_SET_NO": 999, "REV_AT_EPOCH": 8591, "BSTAR": 0, "MEAN_MOTION_DOT": 9.7e-07, "MEAN_MOTION_DDOT": 0}, "tle": {"line1": "1 40315U 14075A   25348.41258525  .00000097  00000+0  00000+0 0  9998", "line2": "2 40315  63.6139 196.7672 0020113 204.2903 155.6894  2.13101427 85910"}}, "geometry": {"type": "Point", "coordinates": [6.07216755431936, 20.28850218437711]}}, {"type": "Feature", "properties": {"norad_id": 41330, "name": "COSMOS 2514 (751)", "group": "glo-ops", "lat": 9.443704222576462, "lon": 134.78832538996136, "alt_km": 19109.910628904105, "timestamp": "2025-12-17T21:39:45.949318+00:00", "meta": {"OBJECT_NAME": "COSMOS 2514 (751)", "OBJECT_ID": "2016-008A", "EPOCH": "2025-12-17T05:05:28.456224", "MEAN_MOTION": 2.13102676, "ECCENTRICITY": 0.00118978, "INCLINATION": 65.1312, "RA_OF_ASC_NODE": 319.2508, "ARG_OF_PERICENTER": 220.152, "MEAN_ANOMALY": 139.7525, "EPHEMERIS_TYPE": 0, "CLASSIFICATION_TYPE": "U", "NORAD_CAT_ID": 41330, "ELEMENT_SET_NO": 999, "REV_AT_EPOCH": 7674, "BSTAR": 0, "MEAN_MOTION_DOT": -6.8e-07, "MEAN_MOTION_DDOT": 0}, "tle": {"line1": "1 41330U 16008A   25351.21213491 -.00000068  00000+0  00000+0 0  9998", "line2": "2 41330  65.1312 319.2508 0011897 220.1520 139.7525  2.13102676 76741"}}, "geometry": {"type": "Point", "coordinates": [134.78832538996136, 9.443704222576462]}}, {"type": "Feature", "properties": {"norad_id": 42939, "name": "COSMOS 2522 (752)", "group": "glo-ops", "lat": -55.40206658400789, "lon": 153.20118284726058, "alt_km": 19130.307738452484, "timestamp": "2025-12-17T21:39:45.949329+00:00", "meta": {"OBJECT_NAME": "COSMOS 2522 (752)", "OBJECT_ID": "2017-055A", "EPOCH": "2025-12-16T02:41:16.915776", "MEAN_MOTION": 2.13102063, "ECCENTRICITY": 0.00063883, "INCLINATION": 64.0761, "RA_OF_ASC_NODE": 198.1142, "ARG_OF_PERICENTER": 224.0896, "MEAN_ANOMALY": 135.9399, "EPHEMERIS_TYPE": 0, "CLASSIFICATION_TYPE": "U", "NORAD_CAT_ID": 42939, "ELEMENT_SET_NO": 999, "REV_AT_EPOCH": 6407, "BSTAR": 0, "MEAN_MOTION_DOT": 1.09e-06, "MEAN_MOTION_DDOT": 0}, "tle": {"line1": "1 42939U 17055A   25350.11200134  .00000109  00000+0  00000+0 0  9990", "line2": "2 42939  64.0761 198.1142 0006388 224.0896 135.9399  2.13102063 64079"}}, "geometry": {"type": "Point", "coordinates": [153.20118284726058, -55.40206658400789]}}, {"type": "Feature", "properties": {"norad_id": 43508, "name": "COSMOS 2527 (756)", "group": "glo-ops", "lat": -32.50436436181051, "lon": 63.08620945412421, "alt_km": 19137.307502548145, "timestamp": "2025-12-17T21:39:45.949339+00:00", "meta": {"OBJECT_NAME": "COSMOS 2527 (756)", "OBJECT_ID": "2018-053A", "EPOCH": "2025-12-16T01:44:48.838272", "MEAN_MOTION": 2.13102153, "ECCENTRICITY": 0.00087862, "INCLINATION": 65.4745, "RA_OF_ASC_NODE": 80.02, "ARG_OF_PERICENTER": 225.9447, "MEAN_ANOMALY": 133.9962, "EPHEMERIS_TYPE": 0, "CLASSIFICATION_TYPE": "U", "NORAD_CAT_ID": 43508, "ELEMENT_SET_NO": 999, "REV_AT_EPOCH": 5837, "BSTAR": 0, "MEAN_MOTION_DOT": -5.4e-07, "MEAN_MOTION_DDOT": 0}, "tle": {"line1": "1 43508U 18053A   25350.07278748 -.00000054  00000+0  00000+0 0  9993", "line2": "2 43508  65.4745  80.0200 0008786 225.9447 133.9962  2.13102153 58379"}}, "geometry": {"type": "Point", "coordinates": [63.08620945412421, -32.50436436181051]}}, {"type": "Feature", "properties": {"norad_id": 43687, "name": "COSMOS 2529 (757)", "group": "glo-ops", "lat": -57.245434823861196, "lon": 67.22377533459779, "alt_km": 19118.08653332526, "timestamp": "2025-12-17T21:39:45.949349+00:00", "meta": {"OBJECT_NAME": "COSMOS 2529 (757)", "OBJECT_ID": "2018-086A", "EPOCH": "2025-12-17T02:36:34.858656", "MEAN_MOTION": 2.13102066, "ECCENTRICITY": 0.00070854, "INCLINATION": 64.292, "RA_OF_ASC_NODE": 198.7408, "ARG_OF_PERICENTER": 253.7168, "MEAN_ANOMALY": 106.2877, "EPHEMERIS_TYPE": 0, "CLASSIFICATION_TYPE": "U", "NORAD_CAT_ID": 43687, "ELEMENT_SET_NO": 999, "REV_AT_EPOCH": 5540, "BSTAR": 0, "MEAN_MOTION_DOT": 1.11e-06, "MEAN_MOTION_DDOT": 0}, "tle": {"line1": "1 43687U 18086A   25351.10873679  .00000111  00000+0  00000+0 0  9999", "line2": "2 43687  64.2920 198.7408 0007085 253.7168 106.2877  2.13102066 55408"}}, "geometry": {"type": "Point", "coordinates": [67.22377533459779, -57.245434823861196]}}, {"type": "Feature", "properties": {"norad_id": 44299, "name": "COSMOS 2534 (758)", "group": "glo-ops", "lat": 21.052479962804636, "lon": -150.62346400561069, "alt_km": 19131.262398675095, "timestamp": "2025-12-17T21:39:45.949359+00:00", "meta": {"OBJECT_NAME": "COSMOS 2534 (758)", "OBJECT_ID": "2019-030A", "EPOCH": "2025-12-17T15:21:55.827072", "MEAN_MOTION": 2.13102433, "ECCENTRICITY": 0.00087807, "INCLINATION": 64.3657, "RA_OF_ASC_NODE": 198.7279, "ARG_OF_PERICENTER": 284.0584, "MEAN_ANOMALY": 258.113, "EPHEMERIS_TYPE": 0, "CLASSIFICATION_TYPE": "U", "NORAD_CAT_ID": 44299, "ELEMENT_SET_NO": 999, "REV_AT_EPOCH": 5105, "BSTAR": 0, "MEAN_MOTION_DOT": 1.11e-06, "MEAN_MOTION_DDOT": 0}, "tle": {"line1": "1 44299U 19030A   25351.64022948  .00000111  00000+0  00000+0 0  9993", "line2": "2 44299  64.3657 198.7279 0008780 284.0584 258.1130  2.13102433 51058"}}, "geometry": {"type": "Point", "coordinates": [-150.62346400561069, 21.052479962804636]}}, {"type": "Feature", "properties": {"norad_id": 44850, "name": "COSMOS 2544 (759)", "group": "glo-ops", "lat": 5.726930355758349, "lon": 82.4150265459063, "alt_km": 19145.51343199925, "timestamp": "2025-12-17T21:39:45.949369+00:00", "meta": {"OBJECT_NAME": "COSMOS 2544 (759)", "OBJECT_ID": "2019-088A", "EPOCH": "2025-12-16T00:24:58.723776", "MEAN_MOTION": 2.13101973, "ECCENTRICITY": 0.00138315, "INCLINATION": 65.4622, "RA_OF_ASC_NODE": 79.8485, "ARG_OF_PERICENTER": 249.722, "MEAN_ANOMALY": 110.1429, "EPHEMERIS_TYPE": 0, "CLASSIFICATION_TYPE": "U", "NORAD_CAT_ID": 44850, "ELEMENT_SET_NO": 999, "REV_AT_EPOCH": 4681, "BSTAR": 0, "MEAN_MOTION_DOT": -5.5e-07, "MEAN_MOTION_DDOT": 0}, "tle": {"line1": "1 44850U 19088A   25350.01734634 -.00000055  00000+0  00000+0 0  9999", "line2": "2 44850  65.4622  79.8485 0013831 249.7220 110.1429  2.13101973 46815"}}, "geometry": {"type": "Point", "coordinates": [82.4150265459063, 5.726930355758349]}}]}